GLOBALSTAR M063 [+]     
1 26081U 00008A   24060.34642017 -.00000052  00000+0  45255-3 0  9995
2 26081  51.9939 279.4810 0005335 118.8508  52.2041 11.86151594101347
GLOBALSTAR M060 [-]     
1 26083U 00008C   24060.44248922 -.00000125  00000+0 -34237-3 0  9995
2 26083  52.0029 301.8699 0002556 240.8027 290.6975 12.17626748 94652
GLOBALSTAR M064 [-]     
1 26084U 00008D   24060.57548841 -.00000068  00000+0  21043-3 0  9999
2 26084  52.0054  23.2855 0001212 223.8339 136.2397 11.88515818110783
GLOBALSTAR M069 [+]     
1 31573U 07020C   24060.60867847 -.00000069  00000+0  19498-3 0  9995
2 31573  51.9940 183.5990 0001438 124.8242 248.6905 12.62257249774746
GLOBALSTAR M072 [+]     
1 31574U 07020D   24060.32240230 -.00000086  00000+0  96614-4 0  9991
2 31574  52.0074 280.3126 0001245  71.5381 100.5820 12.62268327772976
GLOBALSTAR M071 [P]     
1 31576U 07020F   24060.63555694 -.00000072  00000+0  17739-3 0  9995
2 31576  52.0052 188.5972 0001844 134.3500 241.3952 12.62267882435935
